[{"OBJECT_NAME":"STARLINK-3274","OBJECT_ID":"2021-125AG","EPOCH":"2026-01-05T15:02:12.835680","MEAN_MOTION":15.08839795,"ECCENTRICITY":0.00014199,"INCLINATION":53.2178,"RA_OF_ASC_NODE":182.2257,"ARG_OF_PERICENTER":85.048,"MEAN_ANOMALY":275.0674,"EPHEMERIS_TYPE":0,"CLASSIFICATION_TYPE":"U","NORAD_CAT_ID":50186,"ELEMENT_SET_NO":999,"REV_AT_EPOCH":22693,"BSTAR":4.3453303e-5,"MEAN_MOTION_DOT":4.04e-6,"MEAN_MOTION_DDOT":0},{"OBJECT_NAME":"STARLINK-3272","OBJECT_ID":"2021-125AH","EPOCH":"2026-01-05T14:06:33.133536","MEAN_MOTION":15.08912987,"ECCENTRICITY":0.00016415,"INCLINATION":53.2172,"RA_OF_ASC_NODE":162.3953,"ARG_OF_PERICENTER":76.1898,"MEAN_ANOMALY":283.9276,"EPHEMERIS_TYPE":0,"CLASSIFICATION_TYPE":"U","NORAD_CAT_ID":50187,"ELEMENT_SET_NO":999,"REV_AT_EPOCH":22719,"BSTAR":-0.00098060078,"MEAN_MOTION_DOT":-0.00015892,"MEAN_MOTION_DDOT":0},{"OBJECT_NAME":"STARLINK-3276","OBJECT_ID":"2021-125AK","EPOCH":"2026-01-05T14:14:43.452672","MEAN_MOTION":15.09275099,"ECCENTRICITY":0.00013066,"INCLINATION":53.2161,"RA_OF_ASC_NODE":172.3637,"ARG_OF_PERICENTER":79.95,"MEAN_ANOMALY":280.164,"EPHEMERIS_TYPE":0,"CLASSIFICATION_TYPE":"U","NORAD_CAT_ID":50189,"ELEMENT_SET_NO":999,"REV_AT_EPOCH":22711,"BSTAR":0.0023362656,"MEAN_MOTION_DOT":0.00037539,"MEAN_MOTION_DDOT":0},{"OBJECT_NAME":"STARLINK-3268","OBJECT_ID":"2021-125AL","EPOCH":"2026-01-05T15:26:03.365664","MEAN_MOTION":15.0884033,"ECCENTRICITY":0.00011746,"INCLINATION":53.2175,"RA_OF_ASC_NODE":162.1469,"ARG_OF_PERICENTER":81.158,"MEAN_ANOMALY":278.9545,"EPHEMERIS_TYPE":0,"CLASSIFICATION_TYPE":"U","NORAD_CAT_ID":50190,"ELEMENT_SET_NO":999,"REV_AT_EPOCH":22721,"BSTAR":2.9949421e-5,"MEAN_MOTION_DOT":1.89e-6,"MEAN_MOTION_DDOT":0},{"OBJECT_NAME":"STARLINK-3273","OBJECT_ID":"2021-125AM","EPOCH":"2026-01-05T15:39:18.947232","MEAN_MOTION":15.08835733,"ECCENTRICITY":0.00011527,"INCLINATION":53.2179,"RA_OF_ASC_NODE":182.1066,"ARG_OF_PERICENTER":91.7519,"MEAN_ANOMALY":268.3605,"EPHEMERIS_TYPE":0,"CLASSIFICATION_TYPE":"U","NORAD_CAT_ID":50191,"ELEMENT_SET_NO":999,"REV_AT_EPOCH":22693,"BSTAR":3.7790763e-5,"MEAN_MOTION_DOT":3.14e-6,"MEAN_MOTION_DDOT":0},{"OBJECT_NAME":"STARLINK-3259","OBJECT_ID":"2021-125AN","EPOCH":"2026-01-05T15:20:45.943296","MEAN_MOTION":15.08836971,"ECCENTRICITY":0.00013617,"INCLINATION":53.217,"RA_OF_ASC_NODE":162.1642,"ARG_OF_PERICENTER":92.599,"MEAN_ANOMALY":267.5158,"EPHEMERIS_TYPE":0,"CLASSIFICATION_TYPE":"U","NORAD_CAT_ID":50192,"ELEMENT_SET_NO":999,"REV_AT_EPOCH":22721,"BSTAR":4.6803592e-5,"MEAN_MOTION_DOT":4.57e-6,"MEAN_MOTION_DDOT":0},{"OBJECT_NAME":"STARLINK-3261","OBJECT_ID":"2021-125AP","EPOCH":"2026-01-05T15:36:39.736224","MEAN_MOTION":15.08835539,"ECCENTRICITY":0.00013438,"INCLINATION":53.2175,"RA_OF_ASC_NODE":162.1154,"ARG_OF_PERICENTER":89.3769,"MEAN_ANOMALY":270.7377,"EPHEMERIS_TYPE":0,"CLASSIFICATION_TYPE":"U","NORAD_CAT_ID":50193,"ELEMENT_SET_NO":999,"REV_AT_EPOCH":22726,"BSTAR":2.1153669e-5,"MEAN_MOTION_DOT":4.9e-7,"MEAN_MOTION_DDOT":0},{"OBJECT_NAME":"STARLINK-3269","OBJECT_ID":"2021-125AQ","EPOCH":"2026-01-05T16:00:01.999584","MEAN_MOTION":15.68050462,"ECCENTRICITY":0.0003766,"INCLINATION":53.2143,"RA_OF_ASC_NODE":87.3146,"ARG_OF_PERICENTER":47.2043,"MEAN_ANOMALY":272.454,"EPHEMERIS_TYPE":0,"CLASSIFICATION_TYPE":"U","NORAD_CAT_ID":50194,"ELEMENT_SET_NO":999,"REV_AT_EPOCH":595,"BSTAR":0.0022689864,"MEAN_MOTION_DOT":0.00264565,"MEAN_MOTION_DDOT":0},{"OBJECT_NAME":"STARLINK-3266","OBJECT_ID":"2021-125AR","EPOCH":"2026-01-05T15:31:21.495648","MEAN_MOTION":15.08840766,"ECCENTRICITY":0.00014013,"INCLINATION":53.2169,"RA_OF_ASC_NODE":162.1323,"ARG_OF_PERICENTER":89.7818,"MEAN_ANOMALY":270.3335,"EPHEMERIS_TYPE":0,"CLASSIFICATION_TYPE":"U","NORAD_CAT_ID":50195,"ELEMENT_SET_NO":999,"REV_AT_EPOCH":22721,"BSTAR":1.239392e-5,"MEAN_MOTION_DOT":-9.1e-7,"MEAN_MOTION_DDOT":0},{"OBJECT_NAME":"STARLINK-3267","OBJECT_ID":"2021-125AT","EPOCH":"2026-01-05T15:10:09.563232","MEAN_MOTION":15.0884657,"ECCENTRICITY":0.00012815,"INCLINATION":53.2166,"RA_OF_ASC_NODE":162.1958,"ARG_OF_PERICENTER":89.1394,"MEAN_ANOMALY":270.9745,"EPHEMERIS_TYPE":0,"CLASSIFICATION_TYPE":"U","NORAD_CAT_ID":50197,"ELEMENT_SET_NO":999,"REV_AT_EPOCH":22726,"BSTAR":9.0090546e-5,"MEAN_MOTION_DOT":1.146e-5,"MEAN_MOTION_DDOT":0},{"OBJECT_NAME":"STARLINK-3264","OBJECT_ID":"2021-125AU","EPOCH":"2026-01-05T14:48:59.081472","MEAN_MOTION":15.08839115,"ECCENTRICITY":8.36e-5,"INCLINATION":53.2179,"RA_OF_ASC_NODE":162.2633,"ARG_OF_PERICENTER":68.3981,"MEAN_ANOMALY":291.7101,"EPHEMERIS_TYPE":0,"CLASSIFICATION_TYPE":"U","NORAD_CAT_ID":50198,"ELEMENT_SET_NO":999,"REV_AT_EPOCH":22721,"BSTAR":0.00012048764,"MEAN_MOTION_DOT":1.63e-5,"MEAN_MOTION_DDOT":0},{"OBJECT_NAME":"STARLINK-3270","OBJECT_ID":"2021-125AV","EPOCH":"2026-01-05T14:22:29.584128","MEAN_MOTION":15.08817977,"ECCENTRICITY":0.00013202,"INCLINATION":53.2176,"RA_OF_ASC_NODE":162.3473,"ARG_OF_PERICENTER":100.7502,"MEAN_ANOMALY":259.3639,"EPHEMERIS_TYPE":0,"CLASSIFICATION_TYPE":"U","NORAD_CAT_ID":50199,"ELEMENT_SET_NO":999,"REV_AT_EPOCH":22720,"BSTAR":-5.4560151e-5,"MEAN_MOTION_DOT":-1.156e-5,"MEAN_MOTION_DDOT":0},{"OBJECT_NAME":"STARLINK-3235","OBJECT_ID":"2021-125AW","EPOCH":"2026-01-05T14:54:15.809184","MEAN_MOTION":15.08840034,"ECCENTRICITY":0.00011672,"INCLINATION":53.2175,"RA_OF_ASC_NODE":162.2067,"ARG_OF_PERICENTER":85.2649,"MEAN_ANOMALY":274.8476,"EPHEMERIS_TYPE":0,"CLASSIFICATION_TYPE":"U","NORAD_CAT_ID":50200,"ELEMENT_SET_NO":999,"REV_AT_EPOCH":22722,"BSTAR":5.1419439e-5,"MEAN_MOTION_DOT":5.31e-6,"MEAN_MOTION_DDOT":0},{"OBJECT_NAME":"STARLINK-3255","OBJECT_ID":"2021-125AX","EPOCH":"2026-01-05T12:35:25.399392","MEAN_MOTION":15.67027427,"ECCENTRICITY":9.429e-5,"INCLINATION":53.2047,"RA_OF_ASC_NODE":93.0411,"ARG_OF_PERICENTER":2.6238,"MEAN_ANOMALY":357.4784,"EPHEMERIS_TYPE":0,"CLASSIFICATION_TYPE":"U","NORAD_CAT_ID":50201,"ELEMENT_SET_NO":999,"REV_AT_EPOCH":22818,"BSTAR":0.00073580222,"MEAN_MOTION_DOT":0.00080065,"MEAN_MOTION_DDOT":0},{"OBJECT_NAME":"STARLINK-3256","OBJECT_ID":"2021-125AY","EPOCH":"2026-01-05T14:17:10.416480","MEAN_MOTION":15.08837602,"ECCENTRICITY":0.00012327,"INCLINATION":53.2176,"RA_OF_ASC_NODE":162.3637,"ARG_OF_PERICENTER":91.3607,"MEAN_ANOMALY":268.7527,"EPHEMERIS_TYPE":0,"CLASSIFICATION_TYPE":"U","NORAD_CAT_ID":50202,"ELEMENT_SET_NO":999,"REV_AT_EPOCH":22720,"BSTAR":4.0848317e-5,"MEAN_MOTION_DOT":3.62e-6,"MEAN_MOTION_DDOT":0},{"OBJECT_NAME":"STARLINK-3257","OBJECT_ID":"2021-125AZ","EPOCH":"2026-01-05T15:06:15.258528","MEAN_MOTION":15.08841107,"ECCENTRICITY":0.0001321,"INCLINATION":53.2176,"RA_OF_ASC_NODE":162.2949,"ARG_OF_PERICENTER":86.5651,"MEAN_ANOMALY":273.5492,"EPHEMERIS_TYPE":0,"CLASSIFICATION_TYPE":"U","NORAD_CAT_ID":50203,"ELEMENT_SET_NO":999,"REV_AT_EPOCH":22727,"BSTAR":3.5375287e-5,"MEAN_MOTION_DOT":2.75e-6,"MEAN_MOTION_DDOT":0}]
