STARLINK-3274           
1 50186U 21125AG  26005.62653745  .00000404  00000+0  43453-4 0  9992
2 50186  53.2178 182.2257 0001419  85.0480 275.0674 15.08839795226933
STARLINK-3272           
1 50187U 21125AH  26005.58788349 -.00015892  00000+0 -98060-3 0  9999
2 50187  53.2172 162.3953 0001641  76.1898 283.9276 15.08912987227191
STARLINK-3276           
1 50189U 21125AK  26005.59355848  .00037539  00000+0  23363-2 0  9999
2 50189  53.2161 172.3637 0001306  79.9500 280.1640 15.09275099227113
STARLINK-3268           
1 50190U 21125AL  26005.64309451  .00000189  00000+0  29949-4 0  9995
2 50190  53.2175 162.1469 0001174  81.1580 278.9545 15.08840330227211
STARLINK-3273           
1 50191U 21125AM  26005.65230263  .00000314  00000+0  37791-4 0  9995
2 50191  53.2179 182.1066 0001152  91.7519 268.3605 15.08835733226935
STARLINK-3259           
1 50192U 21125AN  26005.63942064  .00000457  00000+0  46804-4 0  9996
2 50192  53.2170 162.1642 0001361  92.5990 267.5158 15.08836971227210
STARLINK-3261           
1 50193U 21125AP  26005.65045991  .00000049  00000+0  21154-4 0  9990
2 50193  53.2175 162.1154 0001343  89.3769 270.7377 15.08835539227265
STARLINK-3269           
1 50194U 21125AQ  26005.66668981  .00264565  00000+0  22690-2 0  9991
2 50194  53.2143  87.3146 0003766  47.2043 272.4540 15.68050462  5950
STARLINK-3266           
1 50195U 21125AR  26005.64677657 -.00000091  00000+0  12394-4 0  9995
2 50195  53.2169 162.1323 0001401  89.7818 270.3335 15.08840766227215
STARLINK-3267           
1 50197U 21125AT  26005.63205513  .00001146  00000+0  90091-4 0  9995
2 50197  53.2166 162.1958 0001281  89.1394 270.9745 15.08846570227262
STARLINK-3264           
1 50198U 21125AU  26005.61735048  .00001630  00000+0  12049-3 0  9999
2 50198  53.2179 162.2633 0000836  68.3981 291.7101 15.08839115227213
STARLINK-3270           
1 50199U 21125AV  26005.59895352 -.00001156  00000+0 -54560-4 0  9992
2 50199  53.2176 162.3473 0001320 100.7502 259.3639 15.08817977227200
STARLINK-3235           
1 50200U 21125AW  26005.62101631  .00000531  00000+0  51419-4 0  9993
2 50200  53.2175 162.2067 0001167  85.2649 274.8476 15.08840034227221
STARLINK-3255           
1 50201U 21125AX  26005.52459953  .00080065  00000+0  73580-3 0  9998
2 50201  53.2047  93.0411 0000942   2.6238 357.4784 15.67027427228185
STARLINK-3256           
1 50202U 21125AY  26005.59525945  .00000362  00000+0  40848-4 0  9995
2 50202  53.2176 162.3637 0001232  91.3607 268.7527 15.08837602227207
STARLINK-3257           
1 50203U 21125AZ  26005.62934327  .00000275  00000+0  35375-4 0  9990
2 50203  53.2176 162.2949 0001321  86.5651 273.5492 15.08841107227274
